0 COSMOS 2251 DEB
1 34882U 93036ACV 13281.31820013  .00000593  00000-0  13473-3 0  3441
2 34882 074.0516 039.5485 0091369 227.4690 162.9556 14.55852018240595
0 COSMOS 2251 DEB
1 34882U 93036ACV 13285.73915771  .00000626  00000-0  14171-3 0  3462
2 34882 074.0522 031.1745 0091198 218.0690 293.4497 14.55860528241236
0 COSMOS 2251 DEB
1 34882U 93036ACV 13290.03926668  .00000597  00000-0  13543-3 0  3478
2 34882 074.0478 023.0398 0091484 208.5990 150.9840 14.55863601241868
0 COSMOS 2251 DEB
1 34882U 93036ACV 13290.06314942  .00000762  00000-0  17098-3 0  3481
2 34882 074.0520 022.9847 0090998 208.8411 275.8938 14.55869391241860
0 COSMOS 2251 DEB
1 34882U 93036ACV 13292.59426046  .00000746  00000-0  16766-3 0  3494
2 34882 074.0517 018.1905 0090878 203.4373 221.7491 14.55873943242237
0 COSMOS 2251 DEB
1 34882U 93036ACV 13294.67247400  .00000797  00000-0  17862-3 0  3506
2 34882 074.0515 014.2540 0090775 198.9862 313.9602 14.55878041242539
